PROGRESS-MS 32          
1 65586U 25204A   25342.54239145  .00012445  00000+0  23028-3 0  9995
2 65586  51.6307 163.2617 0003393 220.7658 139.3077 15.49420853   278
CYGNUS NG-23            
1 65616U 25208A   25342.54239145  .00012445  00000+0  23028-3 0  9993
2 65616  51.6307 163.2617 0003393 220.7658 139.3077 15.49420853   227
DRAGONFLY               
1 65729U 98067XH  25342.54017618  .00170119  00000+0  13513-2 0  9990
2 65729  51.6250 157.2406 0006399 250.6624 109.3682 15.70165771 12504
1998-067XK              
1 65731U 98067XK  25342.52030915  .00098864  00000+0  99223-3 0  9995
2 65731  51.6277 158.6227 0005391 219.7303 140.3298 15.64682619 12486
RSP-03                  
1 65732U 98067XL  25342.53250981  .00130297  00000+0  11732-2 0  9999
2 65732  51.6257 157.9460 0006139 223.6679 136.3832 15.67256125 12501
GHS-01                  
1 65733U 98067XM  25342.11770003  .00205689  00000+0  14759-2 0  9996
2 65733  51.6275 158.9257 0006917 247.5151 112.5115 15.72465570 12457
YOTSUBA-KULOVER         
1 65941U 98067XN  25342.54627336  .00071410  00000+0  90839-3 0  9991
2 65941  51.6278 161.0428 0001671 208.1564 151.9338 15.58705702  9200
BOTAN                   
1 65942U 98067XP  25342.49651448  .00106961  00000+0  12043-2 0  9997
2 65942  51.6286 160.7119 0003646 203.3745 156.7083 15.61718865  9203
E-KAGAKU-1              
1 65943U 98067XQ  25341.77684631  .00088516  00000+0  11280-2 0  9995
2 65943  51.6295 164.9078 0002958 173.7443 186.3587 15.58562644  9086
HRC MONOBLOCK CAMERA    
1 66052U 98067XR  25342.53525744  .00039544  00000+0  61067-3 0  9997
2 66052  51.6285 162.4643 0003930 166.8031 193.3063 15.53711027  8188
HTV-X1                  
1 66174U 25241A   25342.54239145  .00012445  00000+0  23028-3 0  9990
2 66174  51.6307 163.2617 0003393 220.7658 139.3077 15.49420853   519
SZ-21 MODULE            
1 66515U 25246C   25342.51202554  .00030446  00000+0  33876-3 0  9998
2 66515  41.4773  41.8306 0006238 236.9164 123.1077 15.62178331  3789
